[{"OBJECT_NAME":"TEN-KOH","OBJECT_ID":"2018-084G","EPOCH":"2026-03-09T23:23:52.653408","MEAN_MOTION":15.02465351,"ECCENTRICITY":0.0011972,"INCLINATION":98.0798,"RA_OF_ASC_NODE":257.1735,"ARG_OF_PERICENTER":91.8355,"MEAN_ANOMALY":268.424,"EPHEMERIS_TYPE":0,"CLASSIFICATION_TYPE":"U","NORAD_CAT_ID":43677,"ELEMENT_SET_NO":999,"REV_AT_EPOCH":40126,"BSTAR":0.00025918134,"MEAN_MOTION_DOT":3.377e-5,"MEAN_MOTION_DDOT":0},{"OBJECT_NAME":"STARLINK-32932","OBJECT_ID":"2025-037G","EPOCH":"2026-03-09T23:21:37.969632","MEAN_MOTION":14.98322007,"ECCENTRICITY":0.00027887,"INCLINATION":70.0031,"RA_OF_ASC_NODE":353.7766,"ARG_OF_PERICENTER":257.9501,"MEAN_ANOMALY":102.1346,"EPHEMERIS_TYPE":0,"CLASSIFICATION_TYPE":"U","NORAD_CAT_ID":63083,"ELEMENT_SET_NO":999,"REV_AT_EPOCH":5850,"BSTAR":0.00098467625,"MEAN_MOTION_DOT":0.00011673,"MEAN_MOTION_DDOT":0}]
